CCSDS_OEM_VERS = 1.0
CREATION_DATE  = 2017-05-11T11:40:08
ORIGINATOR     = GMAT USER

META_START
OBJECT_NAME          = MOPSSat_alt_35785_km_RAAN_180_116
OBJECT_ID            = SatId
CENTER_NAME          = Earth
REF_FRAME            = EME2000
TIME_SYSTEM          = UTC
START_TIME           = 2017-01-01T00:00:00.000
USEABLE_START_TIME   = 2017-01-01T00:00:00.000
USEABLE_STOP_TIME    = 2017-01-02T00:00:00.000
STOP_TIME            = 2017-01-02T00:00:00.000
INTERPOLATION        = Lagrange
INTERPOLATION_DEGREE = 7 
META_STOP


                                                                                   

2017-01-01T04:16:40.000  -2.169272730559845e+03  -3.983016441507820e+04   3.484535924446165e+03   3.133681820471625e+00  -7.944238670934242e-01   6.946522759539971e-02
2017-01-01T04:16:50.000  -2.137935242528922e+03  -3.983809628913333e+04   3.485229494716672e+03   3.133815567109877e+00  -7.919510847044184e-01   6.924883882002413e-02
2017-01-01T04:17:00.000  -2.106596427100283e+03  -3.984600343870043e+04   3.485920901391253e+03   3.133947306548480e+00  -7.894789713430910e-01   6.903250857214947e-02
2017-01-01T04:17:10.000  -2.075256303980706e+03  -3.985388587056724e+04   3.486610145063704e+03   3.134077040568572e+00  -7.870075282986281e-01   6.881623696459793e-02
2017-01-01T04:17:20.000  -2.043914893249982e+03  -3.986174359143395e+04   3.487297226320168e+03   3.134204770949256e+00  -7.845367568878635e-01   6.860002411261112e-02
2017-01-01T04:17:30.000  -2.012572214948113e+03  -3.986957660801988e+04   3.487982145748465e+03   3.134330499469535e+00  -7.820666584226456e-01   6.838387013099449e-02
2017-01-01T04:17:40.000  -1.981228289167451e+03  -3.987738492703949e+04   3.488664903935981e+03   3.134454227907862e+00  -7.795972342171289e-01   6.816777513475528e-02
2017-01-01T04:17:50.000  -1.949883136027737e+03  -3.988516855521041e+04   3.489345501470395e+03   3.134575958042380e+00  -7.771284855857541e-01   6.795173923892579e-02
2017-01-01T04:18:00.000  -1.918536775644818e+03  -3.989292749925981e+04   3.490023938940208e+03   3.134695691650934e+00  -7.746604138408342e-01   6.773576255835219e-02
2017-01-01T04:18:10.000  -1.887189228119345e+03  -3.990066176592726e+04   3.490700216935009e+03   3.134813430511108e+00  -7.721930202916639e-01   6.751984520761650e-02
2017-01-01T04:18:20.000  -1.855840513424718e+03  -3.990837136199311e+04   3.491374336047968e+03   3.134929176400720e+00  -7.697263062356766e-01   6.730398730026284e-02
2017-01-01T04:18:30.000  -1.824490651481775e+03  -3.991605629425923e+04   3.492046296874114e+03   3.135042931097450e+00  -7.672602729643602e-01   6.708818894931516e-02
2017-01-01T04:18:40.000  -1.793139662158797e+03  -3.992371656954893e+04   3.492716100010370e+03   3.135154696378851e+00  -7.647949217632554e-01   6.687245026727690e-02
2017-01-01T04:18:50.000  -1.761787565196737e+03  -3.993135219472444e+04   3.493383746057053e+03   3.135264474022540e+00  -7.623302539061093e-01   6.665677136561954e-02
2017-01-01T04:19:00.000  -1.730434380321356e+03  -3.993896317666004e+04   3.494049235615542e+03   3.135372265805846e+00  -7.598662706636754e-01   6.644115235555262e-02
2017-01-01T04:19:10.000  -1.699080127254555e+03  -3.994654952223961e+04   3.494712569288050e+03   3.135478073505786e+00  -7.574029733046023e-01   6.622559334810149e-02
2017-01-01T04:19:20.000  -1.667724825745527e+03  -3.995411123834742e+04   3.495373747676832e+03   3.135581898898828e+00  -7.549403630979331e-01   6.601009445432612e-02
2017-01-01T04:19:30.000  -1.636368495595908e+03  -3.996164833186397e+04   3.496032771383805e+03   3.135683743760957e+00  -7.524784413150286e-01   6.579465578548926e-02
2017-01-01T04:19:40.000  -1.605011156567531e+03  -3.996916080968724e+04   3.496689641012422e+03   3.135783609867901e+00  -7.500172092223506e-01   6.557927745242498e-02
2017-01-01T04:19:50.000  -1.573652828795700e+03  -3.997664867863627e+04   3.497344357159230e+03   3.135881498994018e+00  -7.475566681138291e-01   6.536395956837114e-02
2017-01-01T04:20:00.000  -1.542293532288409e+03  -3.998411194556853e+04   3.497996920424148e+03   3.135977412913687e+00  -7.450968192716348e-01   6.514870224553657e-02
2017-01-01T04:20:10.000  -1.510933287112564e+03  -3.999155061733600e+04   3.498647331406604e+03   3.136071353400755e+00  -7.426376639807806e-01   6.493350559637880e-02
2017-01-01T04:20:20.000  -1.479572112672625e+03  -3.999896470095655e+04   3.499295590720533e+03   3.136163322230728e+00  -7.401792034725505e-01   6.471836972865376e-02
2017-01-01T04:20:30.000  -1.448210028430138e+03  -4.000635420344256e+04   3.499941698979401e+03   3.136253321178561e+00  -7.377214389809439e-01   6.450329475035492e-02
2017-01-01T04:20:40.000  -1.416847053740719e+03  -4.001371913184036e+04   3.500585656799632e+03   3.136341352019194e+00  -7.352643717298758e-01   6.428828076859344e-02
2017-01-01T04:20:50.000  -1.385483208260119e+03  -4.002105949313122e+04   3.501227464791968e+03   3.136427416526130e+00  -7.328080029651040e-01   6.407332789239174e-02
2017-01-01T04:21:00.000  -1.354118511642792e+03  -4.002837529430576e+04   3.501867123567968e+03   3.136511516472564e+00  -7.303523339305045e-01   6.385843623060782e-02
2017-01-01T04:21:10.000  -1.322752983541848e+03  -4.003566654236243e+04   3.502504633739879e+03   3.136593653631261e+00  -7.278973658681170e-01   6.364360589193892e-02
2017-01-01T04:21:20.000  -1.291386643910759e+03  -4.004293324424078e+04   3.503139995914795e+03   3.136673829774026e+00  -7.254431000416630e-01   6.342883698697960e-02
2017-01-01T04:21:30.000  -1.260019512597034e+03  -4.005017540691265e+04   3.503773210702637e+03   3.136752046672528e+00  -7.229895377048402e-01   6.321412962544741e-02
2017-01-01T04:21:40.000  -1.228651609502273e+03  -4.005739303734576e+04   3.504404278712967e+03   3.136828306097917e+00  -7.205366801138328e-01   6.299948391727729e-02
2017-01-01T04:21:50.000  -1.197282953874323e+03  -4.006458614266677e+04   3.505033200569242e+03   3.136902609822572e+00  -7.180845284719557e-01   6.278489996777804e-02
2017-01-01T04:22:00.000  -1.165913565015120e+03  -4.007175472999787e+04   3.505659976894535e+03   3.136974959618340e+00  -7.156330839850260e-01   6.257037788247714e-02
2017-01-01T04:22:10.000  -1.134543462120676e+03  -4.007889880649426e+04   3.506284608314798e+03   3.137045357256961e+00  -7.131823478488338e-01   6.235591776602489e-02
2017-01-01T04:22:20.000  -1.103172664687261e+03  -4.008601837924806e+04   3.506907095450476e+03   3.137113804508886e+00  -7.107323212809881e-01   6.214151972498082e-02
2017-01-01T04:22:30.000  -1.071801192209879e+03  -4.009311345536059e+04   3.507527438922814e+03   3.137180303144223e+00  -7.082830054972536e-01   6.192718386574310e-02
2017-01-01T04:22:40.000  -1.040429064182229e+03  -4.010018404194081e+04   3.508145639353732e+03   3.137244854932630e+00  -7.058344017115951e-01   6.171291029455244e-02
2017-01-01T04:22:50.000  -1.009056300398449e+03  -4.010723014604073e+04   3.508761697360167e+03   3.137307461642942e+00  -7.033865111596321e-01   6.149869911954464e-02
2017-01-01T04:23:00.000  -9.776829205467352e+02  -4.011425177474378e+04   3.509375613561801e+03   3.137368125043763e+00  -7.009393350670199e-01   6.128455044798346e-02
2017-01-01T04:23:10.000  -9.463089443724615e+02  -4.012124893512877e+04   3.509987388577924e+03   3.137426846903194e+00  -6.984928746621596e-01   6.107046438737310e-02
2017-01-01T04:23:20.000  -9.149343909583322e+02  -4.012822163443068e+04   3.510597023041469e+03   3.137483628990172e+00  -6.960471311200698e-01   6.085644104054620e-02
2017-01-01T04:23:30.000  -8.835592794460590e+02  -4.013516987987918e+04   3.511204517584914e+03   3.137538473073102e+00  -6.936021056186729e-01   6.064248051058963e-02
2017-01-01T04:23:40.000  -8.521836288500792e+02  -4.014209367874056e+04   3.511809872843937e+03   3.137591380920223e+00  -6.911577993242630e-01   6.042858289957276e-02
2017-01-01T04:23:50.000  -8.208074585584834e+02  -4.014899303820443e+04   3.512413089447511e+03   3.137642354298540e+00  -6.887142134306218e-01   6.021474831197038e-02
2017-01-01T04:24:00.000  -7.894307879196577e+02  -4.015586796547747e+04   3.513014168026109e+03   3.137691394974735e+00  -6.862713491267348e-01   6.000097685183750e-02
2017-01-01T04:24:10.000  -7.580536363375908e+02  -4.016271846776189e+04   3.513613109209805e+03   3.137738504714943e+00  -6.838292076042429e-01   5.978726862346161e-02
2017-01-01T04:24:20.000  -7.266760232349741e+02  -4.016954455226511e+04   3.514209913629134e+03   3.137783685284950e+00  -6.813877900545187e-01   5.957362373110674e-02
2017-01-01T04:24:30.000  -6.952979680356145e+02  -4.017634622620211e+04   3.514804581915297e+03   3.137826938450098e+00  -6.789470976673451e-01   5.936004227889786e-02
2017-01-01T04:24:40.000  -6.639194901268903e+02  -4.018312349680367e+04   3.515397114700869e+03   3.137868265975339e+00  -6.765071316279984e-01   5.914652437056561e-02
2017-01-01T04:24:50.000  -6.325406088422118e+02  -4.018987637132155e+04   3.515987512620267e+03   3.137907669625360e+00  -6.740678931158461e-01   5.893307010932353e-02
2017-01-01T04:25:00.000  -6.011613434240597e+02  -4.019660485703460e+04   3.516575776310276e+03   3.137945151164502e+00  -6.716293833015287e-01   5.871967959762151e-02
2017-01-01T04:25:10.000  -5.697817131193248e+02  -4.020330896122909e+04   3.517161906408327e+03   3.137980712356689e+00  -6.691916033543522e-01   5.850635293779277e-02
2017-01-01T04:25:20.000  -5.384017367658060e+02  -4.020998869128453e+04   3.517745903560010e+03   3.138014354965697e+00  -6.667545544102426e-01   5.829309022924948e-02
2017-01-01T04:25:30.000  -5.070214332932965e+02  -4.021664405456909e+04   3.518327768409920e+03   3.138046080754791e+00  -6.643182376106050e-01   5.807989157188333e-02
2017-01-01T04:25:40.000  -4.756408215342113e+02  -4.022327505847924e+04   3.518907501605129e+03   3.138075891486864e+00  -6.618826540876350e-01   5.786675706478003e-02
